{
  "type": "FeatureCollection",
  "features": [
    {
      "type": "Feature",
      "properties": {
        "norad_id": 34446,
        "name": "COSMOS 2251 DEB",
        "group": "cosmos-2251-debris",
        "lat": 25.60292208823308,
        "lon": 39.62087956098184,
        "alt_km": 753.79992945089,
        "timestamp": "2025-12-26T08:37:54.973985+00:00",
        "meta_object_name": "COSMOS 2251 DEB",
        "meta_object_id": "1993-036SP",
        "meta_epoch": "2025-12-26T03:32:17.799072",
        "meta_mean_motion": 14.49366615,
        "meta_eccentricity": 0.0050478,
        "meta_inclination": 74.0414,
        "meta_ra_of_asc_node": 32.1376,
        "meta_arg_of_pericenter": 166.9118,
        "meta_mean_anomaly": 193.3366,
        "meta_ephemeris_type": 0,
        "meta_classification_type": "U",
        "meta_norad_cat_id": 34446,
        "meta_element_set_no": 999,
        "meta_rev_at_epoch": 88888,
        "meta_bstar": 0.00011116,
        "meta_mean_motion_dot": 4.03e-06,
        "meta_mean_motion_ddot": 0,
        "tle_line1": "1 34446U 93036SP  25360.14742823  .00000403  00000+0  11116-3 0  9998",
        "tle_line2": "2 34446  74.0414  32.1376 0050478 166.9118 193.3366 14.49366615888887"
      },
      "geometry": {
        "type": "Point",
        "coordinates": [
          39.62087956098184,
          25.60292208823308
        ]
      }
    },
    {
      "type": "Feature",
      "properties": {
        "norad_id": 34449,
        "name": "COSMOS 2251 DEB",
        "group": "cosmos-2251-debris",
        "lat": -72.09698767107268,
        "lon": -74.51185854642607,
        "alt_km": 603.3434193082803,
        "timestamp": "2025-12-26T08:37:54.973995+00:00",
        "meta_object_name": "COSMOS 2251 DEB",
        "meta_object_id": "1993-036SS",
        "meta_epoch": "2025-12-26T02:47:06.928224",
        "meta_mean_motion": 14.95579016,
        "meta_eccentricity": 0.0022842,
        "meta_inclination": 74.0325,
        "meta_ra_of_asc_node": 43.5646,
        "meta_arg_of_pericenter": 78.5283,
        "meta_mean_anomaly": 312.2129,
        "meta_ephemeris_type": 0,
        "meta_classification_type": "U",
        "meta_norad_cat_id": 34449,
        "meta_element_set_no": 999,
        "meta_rev_at_epoch": 88893,
        "meta_bstar": 0.0021437,
        "meta_mean_motion_dot": 0.00023961,
        "meta_mean_motion_ddot": 0,
        "tle_line1": "1 34449U 93036SS  25360.11605241  .00023961  00000+0  21437-2 0  9990",
        "tle_line2": "2 34449  74.0325  43.5646 0022842  78.5283 312.2129 14.95579016888939"
      },
      "geometry": {
        "type": "Point",
        "coordinates": [
          -74.51185854642607,
          -72.09698767107268
        ]
      }
    },
    {
      "type": "Feature",
      "properties": {
        "norad_id": 34451,
        "name": "COSMOS 2251 DEB",
        "group": "cosmos-2251-debris",
        "lat": -73.8612542839577,
        "lon": -38.271520366100916,
        "alt_km": 601.1645304399863,
        "timestamp": "2025-12-26T08:37:54.974005+00:00",
        "meta_object_name": "COSMOS 2251 DEB",
        "meta_object_id": "1993-036SU",
        "meta_epoch": "2025-12-25T10:34:49.236096",
        "meta_mean_motion": 14.96279673,
        "meta_eccentricity": 0.0023839,
        "meta_inclination": 74.0458,
        "meta_ra_of_asc_node": 62.2341,
        "meta_arg_of_pericenter": 74.2453,
        "meta_mean_anomaly": 286.1359,
        "meta_ephemeris_type": 0,
        "meta_classification_type": "U",
        "meta_norad_cat_id": 34451,
        "meta_element_set_no": 999,
        "meta_rev_at_epoch": 88825,
        "meta_bstar": 0.002646,
        "meta_mean_motion_dot": 0.00030161,
        "meta_mean_motion_ddot": 0,
        "tle_line1": "1 34451U 93036SU  25359.44084764  .00030161  00000+0  26460-2 0  9999",
        "tle_line2": "2 34451  74.0458  62.2341 0023839  74.2453 286.1359 14.96279673888254"
      },
      "geometry": {
        "type": "Point",
        "coordinates": [
          -38.271520366100916,
          -73.8612542839577
        ]
      }
    },
    {
      "type": "Feature",
      "properties": {
        "norad_id": 34452,
        "name": "COSMOS 2251 DEB",
        "group": "cosmos-2251-debris",
        "lat": 53.502307898665634,
        "lon": 177.3901582807135,
        "alt_km": 568.2285611385787,
        "timestamp": "2025-12-26T08:37:54.974015+00:00",
        "meta_object_name": "COSMOS 2251 DEB",
        "meta_object_id": "1993-036SV",
        "meta_epoch": "2025-12-25T13:51:10.621728",
        "meta_mean_motion": 15.12041887,
        "meta_eccentricity": 0.0064075,
        "meta_inclination": 74.032,
        "meta_ra_of_asc_node": 156.2423,
        "meta_arg_of_pericenter": 229.6968,
        "meta_mean_anomaly": 249.8186,
        "meta_ephemeris_type": 0,
        "meta_classification_type": "U",
        "meta_norad_cat_id": 34452,
        "meta_element_set_no": 999,
        "meta_rev_at_epoch": 90856,
        "meta_bstar": 0.0010223,
        "meta_mean_motion_dot": 0.00018478,
        "meta_mean_motion_ddot": 0,
        "tle_line1": "1 34452U 93036SV  25359.57720627  .00018478  00000+0  10223-2 0  9996",
        "tle_line2": "2 34452  74.0320 156.2423 0064075 229.6968 249.8186 15.12041887908566"
      },
      "geometry": {
        "type": "Point",
        "coordinates": [
          177.3901582807135,
          53.502307898665634
        ]
      }
    },
    {
      "type": "Feature",
      "properties": {
        "norad_id": 34454,
        "name": "COSMOS 2251 DEB",
        "group": "cosmos-2251-debris",
        "lat": 62.05957474653553,
        "lon": 39.94466818463647,
        "alt_km": 780.2440792812395,
        "timestamp": "2025-12-26T08:37:54.974025+00:00",
        "meta_object_name": "COSMOS 2251 DEB",
        "meta_object_id": "1993-036SX",
        "meta_epoch": "2025-12-26T03:06:03.140064",
        "meta_mean_motion": 14.38828394,
        "meta_eccentricity": 0.0035998,
        "meta_inclination": 74.0583,
        "meta_ra_of_asc_node": 252.979,
        "meta_arg_of_pericenter": 312.8835,
        "meta_mean_anomaly": 46.9298,
        "meta_ephemeris_type": 0,
        "meta_classification_type": "U",
        "meta_norad_cat_id": 34454,
        "meta_element_set_no": 999,
        "meta_rev_at_epoch": 88260,
        "meta_bstar": 0.00020854,
        "meta_mean_motion_dot": 6.2e-06,
        "meta_mean_motion_ddot": 0,
        "tle_line1": "1 34454U 93036SX  25360.12920301  .00000620  00000+0  20854-3 0  9994",
        "tle_line2": "2 34454  74.0583 252.9790 0035998 312.8835  46.9298 14.38828394882609"
      },
      "geometry": {
        "type": "Point",
        "coordinates": [
          39.94466818463647,
          62.05957474653553
        ]
      }
    },
    {
      "type": "Feature",
      "properties": {
        "norad_id": 34459,
        "name": "COSMOS 2251 DEB",
        "group": "cosmos-2251-debris",
        "lat": 35.073727155990824,
        "lon": -117.93004040659198,
        "alt_km": 909.914805698605,
        "timestamp": "2025-12-26T08:37:54.974035+00:00",
        "meta_object_name": "COSMOS 2251 DEB",
        "meta_object_id": "1993-036TC",
        "meta_epoch": "2025-12-26T01:36:04.250304",
        "meta_mean_motion": 14.00518809,
        "meta_eccentricity": 0.0192138,
        "meta_inclination": 74.0778,
        "meta_ra_of_asc_node": 231.0143,
        "meta_arg_of_pericenter": 297.7745,
        "meta_mean_anomaly": 60.4023,
        "meta_ephemeris_type": 0,
        "meta_classification_type": "U",
        "meta_norad_cat_id": 34459,
        "meta_element_set_no": 999,
        "meta_rev_at_epoch": 85898,
        "meta_bstar": 0.00032799,
        "meta_mean_motion_dot": 5.46e-06,
        "meta_mean_motion_ddot": 0,
        "tle_line1": "1 34459U 93036TC  25360.06671586  .00000546  00000+0  32799-3 0  9998",
        "tle_line2": "2 34459  74.0778 231.0143 0192138 297.7745  60.4023 14.00518809858988"
      },
      "geometry": {
        "type": "Point",
        "coordinates": [
          -117.93004040659198,
          35.073727155990824
        ]
      }
    },
    {
      "type": "Feature",
      "properties": {
        "norad_id": 34464,
        "name": "COSMOS 2251 DEB",
        "group": "cosmos-2251-debris",
        "lat": -56.39492487663421,
        "lon": 23.68650911027946,
        "alt_km": 482.0835620400603,
        "timestamp": "2025-12-26T08:37:54.974045+00:00",
        "meta_object_name": "COSMOS 2251 DEB",
        "meta_object_id": "1993-036TH",
        "meta_epoch": "2025-12-25T14:02:57.918048",
        "meta_mean_motion": 15.28880799,
        "meta_eccentricity": 0.0013807,
        "meta_inclination": 73.9888,
        "meta_ra_of_asc_node": 50.9383,
        "meta_arg_of_pericenter": 233.2192,
        "meta_mean_anomaly": 126.7744,
        "meta_ephemeris_type": 0,
        "meta_classification_type": "U",
        "meta_norad_cat_id": 34464,
        "meta_element_set_no": 999,
        "meta_rev_at_epoch": 90036,
        "meta_bstar": 0.0025579,
        "meta_mean_motion_dot": 0.00072662,
        "meta_mean_motion_ddot": 0,
        "tle_line1": "1 34464U 93036TH  25359.58539257  .00072662  00000+0  25579-2 0  9992",
        "tle_line2": "2 34464  73.9888  50.9383 0013807 233.2192 126.7744 15.28880799900361"
      },
      "geometry": {
        "type": "Point",
        "coordinates": [
          23.68650911027946,
          -56.39492487663421
        ]
      }
    }
  ]
}